start=new Date('2023-06-25T00:00:00.000Z').valueOf();
sats=[{"MEAN_MOTION_DOT":"0.00000329","CLASSIFICATION_TYPE":"U","MEAN_MOTION":"15.08840689","RA_OF_ASC_NODE":"86.8210","TLE_LINE2":"2 54078  53.2171  86.8210 0001285  82.9354 277.1784 15.08840689 38205","OBJECT_TYPE":"PAYLOAD","PERIAPSIS":"538.854","EPOCH":"2023-06-24T01:38:20.243040","MEAN_ELEMENT_THEORY":"SGP4","FILE":"3941373","RCS_SIZE":"LARGE","ARG_OF_PERICENTER":"82.9354","ECCENTRICITY":"0.00012850","MEAN_MOTION_DDOT":"0.0000000000000","TLE_LINE1":"1 54078U 22136AD  23175.06828985  .00000329  00000-0  38758-4 0  9991","DECAY_DATE":null,"TIME_SYSTEM":"UTC","INCLINATION":"53.2171","BSTAR":"0.00003875800000","REF_FRAME":"TEME","OBJECT_NAME":"STARLINK-5138","SEMIMAJOR_AXIS":"6917.878","COUNTRY_CODE":"US","APOAPSIS":"540.632","PERIOD":"95.438","ELEMENT_SET_NO":"999","EPHEMERIS_TYPE":"0","SITE":"AFETR","CENTER_NAME":"EARTH","NORAD_CAT_ID":"54078","GP_ID":"234518924","LAUNCH_DATE":"2022-10-20","REV_AT_EPOCH":"3820","OBJECT_ID":"2022-136AD","MEAN_ANOMALY":"277.1784"},{"APOAPSIS":"540.537","COUNTRY_CODE":"US","ELEMENT_SET_NO":"999","PERIOD":"95.437","OBJECT_NAME":"STARLINK-5175","SEMIMAJOR_AXIS":"6917.865","OBJECT_ID":"2022-136AE","LAUNCH_DATE":"2022-10-20","REV_AT_EPOCH":"3806","MEAN_ANOMALY":"251.9566","SITE":"AFETR","CENTER_NAME":"EARTH","NORAD_CAT_ID":"54079","EPHEMERIS_TYPE":"0","GP_ID":"234519424","PERIAPSIS":"538.922","EPOCH":"2023-06-24T01:56:50.441568","MEAN_ELEMENT_THEORY":"SGP4","FILE":"3941373","OBJECT_TYPE":"PAYLOAD","ARG_OF_PERICENTER":"108.1553","RCS_SIZE":"LARGE","CLASSIFICATION_TYPE":"U","MEAN_MOTION_DOT":"-0.00000028","RA_OF_ASC_NODE":"96.8715","TLE_LINE2":"2 54079  53.2179  96.8715 0001167 108.1553 251.9566 15.08845159 38065","MEAN_MOTION":"15.08845159","REF_FRAME":"TEME","TLE_LINE1":"1 54079U 22136AE  23175.08113937 -.00000028  00000-0  16296-4 0  9998","MEAN_MOTION_DDOT":"0.0000000000000","ECCENTRICITY":"0.00011670","BSTAR":"0.00001629600000","INCLINATION":"53.2179","DECAY_DATE":null,"TIME_SYSTEM":"UTC"},{"SEMIMAJOR_AXIS":"6917.874","OBJECT_NAME":"STARLINK-5160","ELEMENT_SET_NO":"999","PERIOD":"95.437","APOAPSIS":"540.769","COUNTRY_CODE":"US","GP_ID":"234511872","SITE":"AFETR","NORAD_CAT_ID":"54080","CENTER_NAME":"EARTH","EPHEMERIS_TYPE":"0","MEAN_ANOMALY":"268.5835","OBJECT_ID":"2022-136AF","LAUNCH_DATE":"2022-10-20","REV_AT_EPOCH":"3791","RA_OF_ASC_NODE":"104.2132","TLE_LINE2":"2 54080  53.2173 104.2132 0001488  91.5328 268.5835 15.08842008 37915","MEAN_MOTION":"15.08842008","CLASSIFICATION_TYPE":"U","MEAN_MOTION_DOT":"-0.00000676","ARG_OF_PERICENTER":"91.5328","RCS_SIZE":"LARGE","EPOCH":"2023-06-23T13:05:08.303136","PERIAPSIS":"538.710","MEAN_ELEMENT_THEORY":"SGP4","FILE":"3941069","OBJECT_TYPE":"PAYLOAD","BSTAR":"-0.00002438700000","INCLINATION":"53.2173","DECAY_DATE":null,"TIME_SYSTEM":"UTC","MEAN_MOTION_DDOT":"0.0000000000000","TLE_LINE1":"1 54080U 22136AF  23174.54523499 -.00000676  00000-0 -24387-4 0  9998","ECCENTRICITY":"0.00014880","REF_FRAME":"TEME"},{"OBJECT_TYPE":"PAYLOAD","MEAN_ELEMENT_THEORY":"SGP4","FILE":"3941374","PERIAPSIS":"538.987","EPOCH":"2023-06-24T01:46:13.639872","RCS_SIZE":"LARGE","ARG_OF_PERICENTER":"97.5749","MEAN_MOTION_DOT":"0.00001252","CLASSIFICATION_TYPE":"U","MEAN_MOTION":"15.08843828","TLE_LINE2":"2 54081  53.2176  96.8275 0001080  97.5749 262.5365 15.08843828 38064","RA_OF_ASC_NODE":"96.8275","REF_FRAME":"TEME","ECCENTRICITY":"0.00010800","MEAN_MOTION_DDOT":"0.0000000000000","TLE_LINE1":"1 54081U 22136AG  23175.07376898  .00001252  00000-0  96704-4 0  9998","TIME_SYSTEM":"UTC","DECAY_DATE":null,"INCLINATION":"53.2176","BSTAR":"0.00009670400000","COUNTRY_CODE":"US","APOAPSIS":"540.481","PERIOD":"95.437","ELEMENT_SET_NO":"999","OBJECT_NAME":"STARLINK-5165","SEMIMAJOR_AXIS":"6917.869","REV_AT_EPOCH":"3806","LAUNCH_DATE":"2022-10-20","OBJECT_ID":"2022-136AG","MEAN_ANOMALY":"262.5365","EPHEMERIS_TYPE":"0","CENTER_NAME":"EARTH","NORAD_CAT_ID":"54081","SITE":"AFETR","GP_ID":"234518935"},{"EPHEMERIS_TYPE":"0","CENTER_NAME":"EARTH","NORAD_CAT_ID":"54082","SITE":"AFETR","GP_ID":"234505435","LAUNCH_DATE":"2022-10-20","REV_AT_EPOCH":"3797","OBJECT_ID":"2022-136AH","MEAN_ANOMALY":"270.1234","OBJECT_NAME":"STARLINK-5210","SEMIMAJOR_AXIS":"6917.874","COUNTRY_CODE":"US","APOAPSIS":"540.455","ELEMENT_SET_NO":"999","PERIOD":"95.437","ECCENTRICITY":"0.00010360","MEAN_MOTION_DDOT":"0.0000000000000","TLE_LINE1":"1 54082U 22136AH  23174.48129471 -.00000148  00000-0  87939-5 0  9991","TIME_SYSTEM":"UTC","DECAY_DATE":null,"BSTAR":"0.00000879390000","INCLINATION":"53.2162","REF_FRAME":"TEME","MEAN_MOTION_DOT":"-0.00000148","CLASSIFICATION_TYPE":"U","MEAN_MOTION":"15.08842213","TLE_LINE2":"2 54082  53.2162  99.5226 0001036  89.9876 270.1234 15.08842213 37979","RA_OF_ASC_NODE":"99.5226","OBJECT_TYPE":"PAYLOAD","FILE":"3940825","MEAN_ELEMENT_THEORY":"SGP4","PERIAPSIS":"539.022","EPOCH":"2023-06-23T11:33:03.862944","RCS_SIZE":"LARGE","ARG_OF_PERICENTER":"89.9876"},{"APOAPSIS":"540.545","COUNTRY_CODE":"US","ELEMENT_SET_NO":"999","PERIOD":"95.437","OBJECT_NAME":"STARLINK-5178","SEMIMAJOR_AXIS":"6917.863","OBJECT_ID":"2022-136AJ","REV_AT_EPOCH":"3808","LAUNCH_DATE":"2022-10-20","MEAN_ANOMALY":"268.6381","SITE":"AFETR","NORAD_CAT_ID":"54083","CENTER_NAME":"EARTH","EPHEMERIS_TYPE":"0","GP_ID":"234525399","PERIAPSIS":"538.911","EPOCH":"2023-06-24T04:46:23.018592","MEAN_ELEMENT_THEORY":"SGP4","FILE":"3941660","OBJECT_TYPE":"PAYLOAD","ARG_OF_PERICENTER":"91.4746","RCS_SIZE":"LARGE","CLASSIFICATION_TYPE":"U","MEAN_MOTION_DOT":"0.00000160","TLE_LINE2":"2 54083  53.2167  96.1838 0001181  91.4746 268.6381 15.08845629 38084","RA_OF_ASC_NODE":"96.1838","MEAN_MOTION":"15.08845629","REF_FRAME":"TEME","MEAN_MOTION_DDOT":"0.0000000000000","TLE_LINE1":"1 54083U 22136AJ  23175.19887753  .00000160  00000-0  28112-4 0  9995","ECCENTRICITY":"0.00011810","BSTAR":"0.00002811200000","INCLINATION":"53.2167","DECAY_DATE":null,"TIME_SYSTEM":"UTC"},{"SEMIMAJOR_AXIS":"6917.891","OBJECT_NAME":"STARLINK-5183","PERIOD":"95.438","ELEMENT_SET_NO":"999","COUNTRY_CODE":"US","APOAPSIS":"540.758","GP_ID":"234519430","EPHEMERIS_TYPE":"0","SITE":"AFETR","CENTER_NAME":"EARTH","NORAD_CAT_ID":"54084","MEAN_ANOMALY":"264.2076","REV_AT_EPOCH":"3806","LAUNCH_DATE":"2022-10-20","OBJECT_ID":"2022-136AK","MEAN_MOTION":"15.08836606","TLE_LINE2":"2 54084  53.2172  96.8051 0001449  95.9082 264.2076 15.08836606 38060","RA_OF_ASC_NODE":"96.8051","MEAN_MOTION_DOT":"0.00000271","CLASSIFICATION_TYPE":"U","RCS_SIZE":"LARGE","ARG_OF_PERICENTER":"95.9082","OBJECT_TYPE":"PAYLOAD","PERIAPSIS":"538.753","EPOCH":"2023-06-24T01:42:18.642240","FILE":"3941374","MEAN_ELEMENT_THEORY":"SGP4","DECAY_DATE":null,"TIME_SYSTEM":"UTC","BSTAR":"0.00003513500000","INCLINATION":"53.2172","ECCENTRICITY":"0.00014490","MEAN_MOTION_DDOT":"0.0000000000000","TLE_LINE1":"1 54084U 22136AK  23175.07104910  .00000271  00000-0  35135-4 0  9996","REF_FRAME":"TEME"},{"OBJECT_ID":"2022-136AL","LAUNCH_DATE":"2022-10-20","REV_AT_EPOCH":"3807","MEAN_ANOMALY":"260.1760","CENTER_NAME":"EARTH","NORAD_CAT_ID":"54085","SITE":"AFETR","EPHEMERIS_TYPE":"0","GP_ID":"234525408","APOAPSIS":"540.612","COUNTRY_CODE":"US","PERIOD":"95.437","ELEMENT_SET_NO":"999","OBJECT_NAME":"STARLINK-5166","SEMIMAJOR_AXIS":"6917.852","REF_FRAME":"TEME","MEAN_MOTION_DDOT":"0.0000000000000","TLE_LINE1":"1 54085U 22136AL  23175.19519582  .00002199  00000-0  15618-3 0  9999","ECCENTRICITY":"0.00012940","INCLINATION":"53.2164","BSTAR":"0.00015618000000","TIME_SYSTEM":"UTC","DECAY_DATE":null,"FILE":"3941660","MEAN_ELEMENT_THEORY":"SGP4","EPOCH":"2023-06-24T04:41:04.918848","PERIAPSIS":"538.822","OBJECT_TYPE":"PAYLOAD","ARG_OF_PERICENTER":"99.9379","RCS_SIZE":"LARGE","CLASSIFICATION_TYPE":"U","MEAN_MOTION_DOT":"0.00002199","RA_OF_ASC_NODE":"96.1605","TLE_LINE2":"2 54085  53.2164  96.1605 0001294  99.9379 260.1760 15.08849395 38076","MEAN_MOTION":"15.08849395"},{"INCLINATION":"53.2176","BSTAR":"0.00005207100000","TIME_SYSTEM":"UTC","DECAY_DATE":null,"MEAN_MOTION_DDOT":"0.0000000000000","TLE_LINE1":"1 54086U 22136AM  23175.46338874  .00000541  00000-0  52071-4 0  9997","ECCENTRICITY":"0.00011730","REF_FRAME":"TEME","RA_OF_ASC_NODE":"80.0340","TLE_LINE2":"2 54086  53.2176  80.0340 0001173  91.7476 268.3650 15.08842455 38328","MEAN_MOTION":"15.08842455","CLASSIFICATION_TYPE":"U","MEAN_MOTION_DOT":"0.00000541","ARG_OF_PERICENTER":"91.7476","RCS_SIZE":"LARGE","MEAN_ELEMENT_THEORY":"SGP4","FILE":"3941923","EPOCH":"2023-06-24T11:07:16.787136","PERIAPSIS":"538.926","OBJECT_TYPE":"PAYLOAD","GP_ID":"234532072","NORAD_CAT_ID":"54086","CENTER_NAME":"EARTH","SITE":"AFETR","EPHEMERIS_TYPE":"0","MEAN_ANOMALY":"268.3650","OBJECT_ID":"2022-136AM","LAUNCH_DATE":"2022-10-20","REV_AT_EPOCH":"3832","SEMIMAJOR_AXIS":"6917.873","OBJECT_NAME":"STARLINK-5211","ELEMENT_SET_NO":"999","PERIOD":"95.437","APOAPSIS":"540.549","COUNTRY_CODE":"US"},{"ELEMENT_SET_NO":"999","PERIOD":"95.438","COUNTRY_CODE":"US","APOAPSIS":"540.879","SEMIMAJOR_AXIS":"6917.900","OBJECT_NAME":"STARLINK-5184","MEAN_ANOMALY":"281.7020","LAUNCH_DATE":"2022-10-20","REV_AT_EPOCH":"3801","OBJECT_ID":"2022-136AN","GP_ID":"234511888","EPHEMERIS_TYPE":"0","SITE":"AFETR","NORAD_CAT_ID":"54087","CENTER_NAME":"EARTH","RCS_SIZE":"LARGE","ARG_OF_PERICENTER":"78.4152","OBJECT_TYPE":"PAYLOAD","EPOCH":"2023-06-23T19:03:28.293408","PERIAPSIS":"538.650","MEAN_ELEMENT_THEORY":"SGP4","FILE":"3941070","MEAN_MOTION":"15.08833722","TLE_LINE2":"2 54087  53.2162  97.9261 0001611  78.4152 281.7020 15.08833722 38016","RA_OF_ASC_NODE":"97.9261","MEAN_MOTION_DOT":"0.00000676","CLASSIFICATION_TYPE":"U","REF_FRAME":"TEME","DECAY_DATE":null,"TIME_SYSTEM":"UTC","INCLINATION":"53.2162","BSTAR":"0.00006054500000","ECCENTRICITY":"0.00016110","MEAN_MOTION_DDOT":"0.0000000000000","TLE_LINE1":"1 54087U 22136AN  23174.79407747  .00000676  00000-0  60545-4 0  9993"}];
